QIANFAN-57              
1 62787U 25016C   25266.02077060  .00000069  00000+0  87620-4 0  9998
2 62787  88.9766 111.5359 0002316  65.2086 294.9306 13.50965540 36303
QIANFAN-58              
1 62788U 25016D   25266.28814234  .00000064  00000+0  81041-4 0  9995
2 62788  88.9734 111.3648 0012702 210.1021 149.9402 13.50972161 36389
QIANFAN-59              
1 62789U 25016E   25265.79403524  .00000073  00000+0  96244-4 0  9998
2 62789  88.9759 111.4703 0013038 215.9087 144.1189 13.49480809 36311
QIANFAN-60              
1 62790U 25016F   25266.35424867  .00000059  00000+0  71238-4 0  9996
2 62790  88.9739 111.4013 0014258 211.1349 148.8960 13.52523660 36370
QIANFAN-61              
1 62791U 25016G   25266.30455321  .00000082  00000+0  10887-3 0  9999
2 62791  88.9807 111.5126 0013562 209.9714 150.0662 13.50971788 36382
QIANFAN-62              
1 62792U 25016H   25266.30869447  .00000071  00000+0  91515-4 0  9994
2 62792  88.9753 111.4241 0014929 210.8915 149.1360 13.50965749 36375
QIANFAN-63              
1 62793U 25016J   25266.33259435  .00000082  00000+0  11072-3 0  9999
2 62793  88.9760 111.3676 0014579 217.1529 142.8614 13.49732427 36417
QIANFAN-64              
1 62794U 25016K   25266.00459885  .00000081  00000+0  10493-3 0  9990
2 62794  88.9747 111.3867 0012822 207.8155 152.2313 13.52421057 36368
